{"type": "FeatureCollection", "features": [ {"type": "Feature", "properties": {"norad_id": 66915, "name": "HULIANWANG DIGUI-105", "group": "last-30-days", "lat": -17.226249614694037, "lon": -76.3534570322635, "alt_km": 884.788163419048, "timestamp": "2025-12-19T18:58:40.329453+00:00", "meta": {"OBJECT_NAME": "HULIANWANG DIGUI-105", "OBJECT_ID": "2025-285A", "EPOCH": "2025-12-19T07:45:50.483808", "MEAN_MOTION": 14.03717452, "ECCENTRICITY": 0.00080227, "INCLINATION": 50.0047, "RA_OF_ASC_NODE": 90.4628, "ARG_OF_PERICENTER": 304.6743, "MEAN_ANOMALY": 55.3405, "EPHEMERIS_TYPE": 0, "CLASSIFICATION_TYPE": "U", "NORAD_CAT_ID": 66915, "ELEMENT_SET_NO": 999, "REV_AT_EPOCH": 183, "BSTAR": 8.3554877e-05, "MEAN_MOTION_DOT": -1.9e-07, "MEAN_MOTION_DDOT": 0}, "tle": {"line1": "1 66915U 25285A   25353.32350097 -.00000019  00000+0  83555-4 0  9996", "line2": "2 66915  50.0047  90.4628 0008022 304.6743  55.3405 14.03717452  1831"}}, "geometry": {"type": "Point", "coordinates": [-76.3534570322635, -17.226249614694037]}}, {"type": "Feature", "properties": {"norad_id": 66916, "name": "HULIANWANG DIGUI-106", "group": "last-30-days", "lat": -27.7681784133597, "lon": -65.23484194465975, "alt_km": 883.6711849414432, "timestamp": "2025-12-19T18:58:40.329465+00:00", "meta": {"OBJECT_NAME": "HULIANWANG DIGUI-106", "OBJECT_ID": "2025-285B", "EPOCH": "2025-12-19T07:41:38.696928", "MEAN_MOTION": 14.03702384, "ECCENTRICITY": 0.00068089, "INCLINATION": 50.0058, "RA_OF_ASC_NODE": 90.4488, "ARG_OF_PERICENTER": 297.8947, "MEAN_ANOMALY": 62.1268, "EPHEMERIS_TYPE": 0, "CLASSIFICATION_TYPE": "U", "NORAD_CAT_ID": 66916, "ELEMENT_SET_NO": 999, "REV_AT_EPOCH": 183, "BSTAR": 7.9822733e-05, "MEAN_MOTION_DOT": -2.5e-07, "MEAN_MOTION_DDOT": 0}, "tle": {"line1": "1 66916U 25285B   25353.32058677 -.00000025  00000+0  79823-4 0  9996", "line2": "2 66916  50.0058  90.4488 0006808 297.8947  62.1268 14.03702384  1838"}}, "geometry": {"type": "Point", "coordinates": [-65.23484194465975, -27.7681784133597]}}, {"type": "Feature", "properties": {"norad_id": 66917, "name": "HULIANWANG DIGUI-107", "group": "last-30-days", "lat": -34.016846398207356, "lon": -56.97326807876725, "alt_km": 884.1572479437118, "timestamp": "2025-12-19T18:58:40.329475+00:00", "meta": {"OBJECT_NAME": "HULIANWANG DIGUI-107", "OBJECT_ID": "2025-285C", "EPOCH": "2025-12-19T07:38:55.641120", "MEAN_MOTION": 14.03662361, "ECCENTRICITY": 0.00074733, "INCLINATION": 50.0023, "RA_OF_ASC_NODE": 90.4327, "ARG_OF_PERICENTER": 307.4223, "MEAN_ANOMALY": 52.6001, "EPHEMERIS_TYPE": 0, "CLASSIFICATION_TYPE": "U", "NORAD_CAT_ID": 66917, "ELEMENT_SET_NO": 999, "REV_AT_EPOCH": 183, "BSTAR": 6.413734e-05, "MEAN_MOTION_DOT": -5e-07, "MEAN_MOTION_DDOT": 0}, "tle": {"line1": "1 66917U 25285C   25353.31869955 -.00000050  00000+0  64137-4 0  9995", "line2": "2 66917  50.0023  90.4327 0007473 307.4223  52.6001 14.03662361  1836"}}, "geometry": {"type": "Point", "coordinates": [-56.97326807876725, -34.016846398207356]}}, {"type": "Feature", "properties": {"norad_id": 66918, "name": "HULIANWANG DIGUI-108", "group": "last-30-days", "lat": -36.57724984765092, "lon": -52.96251735513082, "alt_km": 883.8217581804956, "timestamp": "2025-12-19T18:58:40.329485+00:00", "meta": {"OBJECT_NAME": "HULIANWANG DIGUI-108", "OBJECT_ID": "2025-285D", "EPOCH": "2025-12-19T07:37:43.006368", "MEAN_MOTION": 14.03601039, "ECCENTRICITY": 0.00065916, "INCLINATION": 50.0045, "RA_OF_ASC_NODE": 90.4319, "ARG_OF_PERICENTER": 301.9823, "MEAN_ANOMALY": 58.044, "EPHEMERIS_TYPE": 0, "CLASSIFICATION_TYPE": "U", "NORAD_CAT_ID": 66918, "ELEMENT_SET_NO": 999, "REV_AT_EPOCH": 183, "BSTAR": -1.3457518e-05, "MEAN_MOTION_DOT": -1.73e-06, "MEAN_MOTION_DDOT": 0}, "tle": {"line1": "1 66918U 25285D   25353.31785887 -.00000173  00000+0 -13458-4 0  9994", "line2": "2 66918  50.0045  90.4319 0006591 301.9823  58.0440 14.03601039  1839"}}, "geometry": {"type": "Point", "coordinates": [-52.96251735513082, -36.57724984765092]}}, {"type": "Feature", "properties": {"norad_id": 66919, "name": "HULIANWANG DIGUI-109", "group": "last-30-days", "lat": -40.39150549106165, "lon": -45.92524406502846, "alt_km": 883.8583020246488, "timestamp": "2025-12-19T18:58:40.329497+00:00", "meta": {"OBJECT_NAME": "HULIANWANG DIGUI-109", "OBJECT_ID": "2025-285E", "EPOCH": "2025-12-19T07:35:51.677376", "MEAN_MOTION": 14.03725272, "ECCENTRICITY": 0.00078685, "INCLINATION": 50.0069, "RA_OF_ASC_NODE": 90.4295, "ARG_OF_PERICENTER": 314.3964, "MEAN_ANOMALY": 45.6295, "EPHEMERIS_TYPE": 0, "CLASSIFICATION_TYPE": "U", "NORAD_CAT_ID": 66919, "ELEMENT_SET_NO": 999, "REV_AT_EPOCH": 183, "BSTAR": -1.7904595e-05, "MEAN_MOTION_DOT": -1.8e-06, "MEAN_MOTION_DDOT": 0}, "tle": {"line1": "1 66919U 25285E   25353.31657034 -.00000180  00000+0 -17905-4 0  9996", "line2": "2 66919  50.0069  90.4295 0007868 314.3964  45.6295 14.03725272  1837"}}, "geometry": {"type": "Point", "coordinates": [-45.92524406502846, -40.39150549106165]}}, {"type": "Feature", "properties": {"norad_id": 66920, "name": "HULIANWANG DIGUI-110", "group": "last-30-days", "lat": -42.71335090454597, "lon": -40.714380990580864, "alt_km": 883.9505611542545, "timestamp": "2025-12-19T18:58:40.329508+00:00", "meta": {"OBJECT_NAME": "HULIANWANG DIGUI-110", "OBJECT_ID": "2025-285F", "EPOCH": "2025-12-19T07:34:33.504384", "MEAN_MOTION": 14.03681957, "ECCENTRICITY": 0.00055754, "INCLINATION": 50.0114, "RA_OF_ASC_NODE": 90.4305, "ARG_OF_PERICENTER": 311.5475, "MEAN_ANOMALY": 48.495, "EPHEMERIS_TYPE": 0, "CLASSIFICATION_TYPE": "U", "NORAD_CAT_ID": 66920, "ELEMENT_SET_NO": 999, "REV_AT_EPOCH": 183, "BSTAR": 0.00010146521, "MEAN_MOTION_DOT": 9e-08, "MEAN_MOTION_DDOT": 0}, "tle": {"line1": "1 66920U 25285F   25353.31566556  .00000009  00000+0  10147-3 0  9994", "line2": "2 66920  50.0114  90.4305 0005575 311.5475  48.4950 14.03681957  1831"}}, "geometry": {"type": "Point", "coordinates": [-40.714380990580864, -42.71335090454597]}}, {"type": "Feature", "properties": {"norad_id": 66921, "name": "HULIANWANG DIGUI-111", "group": "last-30-days", "lat": -44.81989209169607, "lon": -34.99618660254268, "alt_km": 883.898647422995, "timestamp": "2025-12-19T18:58:40.329517+00:00", "meta": {"OBJECT_NAME": "HULIANWANG DIGUI-111", "OBJECT_ID": "2025-285G", "EPOCH": "2025-12-19T07:33:12.361824", "MEAN_MOTION": 14.03631195, "ECCENTRICITY": 0.00066389, "INCLINATION": 50.0116, "RA_OF_ASC_NODE": 90.4283, "ARG_OF_PERICENTER": 315.416, "MEAN_ANOMALY": 44.621, "EPHEMERIS_TYPE": 0, "CLASSIFICATION_TYPE": "U", "NORAD_CAT_ID": 66921, "ELEMENT_SET_NO": 999, "REV_AT_EPOCH": 183, "BSTAR": -1.712399e-05, "MEAN_MOTION_DOT": -1.78e-06, "MEAN_MOTION_DDOT": 0}, "tle": {"line1": "1 66921U 25285G   25353.31472641 -.00000178  00000+0 -17124-4 0  9998", "line2": "2 66921  50.0116  90.4283 0006638 315.4160  44.6210 14.03631195  1830"}}, "geometry": {"type": "Point", "coordinates": [-34.99618660254268, -44.81989209169607]}}, {"type": "Feature", "properties": {"norad_id": 66922, "name": "HULIANWANG DIGUI-112", "group": "last-30-days", "lat": -46.75385301016077, "lon": -28.35162320076057, "alt_km": 884.3437621890707, "timestamp": "2025-12-19T18:58:40.329527+00:00", "meta": {"OBJECT_NAME": "HULIANWANG DIGUI-112", "OBJECT_ID": "2025-285H", "EPOCH": "2025-12-19T07:31:47.378784", "MEAN_MOTION": 14.0366113, "ECCENTRICITY": 0.00064791, "INCLINATION": 50.009, "RA_OF_ASC_NODE": 90.4167, "ARG_OF_PERICENTER": 326.0026, "MEAN_ANOMALY": 34.0463, "EPHEMERIS_TYPE": 0, "CLASSIFICATION_TYPE": "U", "NORAD_CAT_ID": 66922, "ELEMENT_SET_NO": 999, "REV_AT_EPOCH": 183, "BSTAR": -2.61365e-06, "MEAN_MOTION_DOT": -1.56e-06, "MEAN_MOTION_DDOT": 0}, "tle": {"line1": "1 66922U 25285H   25353.31374281 -.00000156  00000+0 -26136-5 0  9990", "line2": "2 66922  50.0090  90.4167 0006479 326.0026  34.0463 14.03661130  1830"}}, "geometry": {"type": "Point", "coordinates": [-28.35162320076057, -46.75385301016077]}}, {"type": "Feature", "properties": {"norad_id": 66923, "name": "HULIANWANG DIGUI-113", "group": "last-30-days", "lat": -48.41040829944433, "lon": -20.49458472228581, "alt_km": 883.8739849774465, "timestamp": "2025-12-19T18:58:40.329537+00:00", "meta": {"OBJECT_NAME": "HULIANWANG DIGUI-113", "OBJECT_ID": "2025-285J", "EPOCH": "2025-12-19T07:30:13.849056", "MEAN_MOTION": 14.03699473, "ECCENTRICITY": 0.00050553, "INCLINATION": 50.0087, "RA_OF_ASC_NODE": 90.4123, "ARG_OF_PERICENTER": 320.716, "MEAN_ANOMALY": 39.3377, "EPHEMERIS_TYPE": 0, "CLASSIFICATION_TYPE": "U", "NORAD_CAT_ID": 66923, "ELEMENT_SET_NO": 999, "REV_AT_EPOCH": 183, "BSTAR": 0.0001958702, "MEAN_MOTION_DOT": 1.58e-06, "MEAN_MOTION_DDOT": 0}, "tle": {"line1": "1 66923U 25285J   25353.31266029  .00000158  00000+0  19587-3 0  9991", "line2": "2 66923  50.0087  90.4123 0005055 320.7160  39.3377 14.03699473  1831"}}, "geometry": {"type": "Point", "coordinates": [-20.49458472228581, -48.41040829944433]}}, {"type": "Feature", "properties": {"norad_id": 66924, "name": "CZ-8A R/B", "group": "last-30-days", "lat": 15.659884325667422, "lon": 99.7496927905675, "alt_km": 817.9161966868087, "timestamp": "2025-12-19T18:58:40.329547+00:00", "meta": {"OBJECT_NAME": "CZ-8A R/B", "OBJECT_ID": "2025-285K", "EPOCH": "2025-12-19T07:08:40.835040", "MEAN_MOTION": 14.30504184, "ECCENTRICITY": 0.01192678, "INCLINATION": 50.0074, "RA_OF_ASC_NODE": 88.2389, "ARG_OF_PERICENTER": 129.8656, "MEAN_ANOMALY": 231.2822, "EPHEMERIS_TYPE": 0, "CLASSIFICATION_TYPE": "U", "NORAD_CAT_ID": 66924, "ELEMENT_SET_NO": 999, "REV_AT_EPOCH": 186, "BSTAR": 4.7291234e-05, "MEAN_MOTION_DOT": -3.3e-07, "MEAN_MOTION_DDOT": 0}, "tle": {"line1": "1 66924U 25285K   25353.29769485 -.00000033  00000+0  47291-4 0  9990", "line2": "2 66924  50.0074  88.2389 0119267 129.8656 231.2822 14.30504184  1861"}}, "geometry": {"type": "Point", "coordinates": [99.7496927905675, 15.659884325667422]}}]}